CCSDS_OMM_VERS = 2.0
CREATION_DATE  = 
ORIGINATOR     = 

OBJECT_NAME    = SL-14 R/B
OBJECT_ID      = 1986-046B
CENTER_NAME    = EARTH
REF_FRAME      = TEME
TIME_SYSTEM    = UTC
MEAN_ELEMENT_THEORY = SGP/SGP4

EPOCH          = 2026-03-05T13:32:05.540928
MEAN_MOTION    = 14.85585893
ECCENTRICITY   = .00217419
INCLINATION    = 82.4782
RA_OF_ASC_NODE = 84.0813
ARG_OF_PERICENTER = 239.7797
MEAN_ANOMALY   = 120.1266

EPHEMERIS_TYPE = 0
CLASSIFICATION_TYPE = U
NORAD_CAT_ID   = 16792
ELEMENT_SET_NO = 999
REV_AT_EPOCH   = 12579
BSTAR          = .71558644E-4
MEAN_MOTION_DOT = .645E-5
MEAN_MOTION_DDOT = 0

CCSDS_OMM_VERS = 2.0
CREATION_DATE  = 
ORIGINATOR     = 

OBJECT_NAME    = SL-14 R/B
OBJECT_ID      = 1986-055B
CENTER_NAME    = EARTH
REF_FRAME      = TEME
TIME_SYSTEM    = UTC
MEAN_ELEMENT_THEORY = SGP/SGP4

EPOCH          = 2026-03-05T15:30:48.102912
MEAN_MOTION    = 14.85638723
ECCENTRICITY   = .00185317
INCLINATION    = 82.5209
RA_OF_ASC_NODE = 130.4745
ARG_OF_PERICENTER = 350.2918
MEAN_ANOMALY   = 174.4973

EPHEMERIS_TYPE = 0
CLASSIFICATION_TYPE = U
NORAD_CAT_ID   = 16882
ELEMENT_SET_NO = 999
REV_AT_EPOCH   = 11876
BSTAR          = .70998654E-4
MEAN_MOTION_DOT = .641E-5
MEAN_MOTION_DDOT = 0

CCSDS_OMM_VERS = 2.0
CREATION_DATE  = 
ORIGINATOR     = 

OBJECT_NAME    = AJISAI (EGS)
OBJECT_ID      = 1986-061A
CENTER_NAME    = EARTH
REF_FRAME      = TEME
TIME_SYSTEM    = UTC
MEAN_ELEMENT_THEORY = SGP/SGP4

EPOCH          = 2026-03-05T14:58:04.155744
MEAN_MOTION    = 12.44515598
ECCENTRICITY   = .00112559
INCLINATION    = 50.0080
RA_OF_ASC_NODE = 105.8513
ARG_OF_PERICENTER = 276.5759
MEAN_ANOMALY   = 169.8789

EPHEMERIS_TYPE = 0
CLASSIFICATION_TYPE = U
NORAD_CAT_ID   = 16908
ELEMENT_SET_NO = 999
REV_AT_EPOCH   = 46749
BSTAR          = .14749605E-3
MEAN_MOTION_DOT = -.76E-6
MEAN_MOTION_DDOT = 0

CCSDS_OMM_VERS = 2.0
CREATION_DATE  = 
ORIGINATOR     = 

OBJECT_NAME    = COSMOS 1812
OBJECT_ID      = 1987-003A
CENTER_NAME    = EARTH
REF_FRAME      = TEME
TIME_SYSTEM    = UTC
MEAN_ELEMENT_THEORY = SGP/SGP4

EPOCH          = 2026-03-05T13:58:42.127392
MEAN_MOTION    = 16.38269848
ECCENTRICITY   = .00101187
INCLINATION    = 82.4648
RA_OF_ASC_NODE = 200.2475
ARG_OF_PERICENTER = 278.1750
MEAN_ANOMALY   = 81.8400

EPHEMERIS_TYPE = 0
CLASSIFICATION_TYPE = U
NORAD_CAT_ID   = 17295
ELEMENT_SET_NO = 999
REV_AT_EPOCH   = 14382
BSTAR          = .50898677E-3
MEAN_MOTION_DOT = .5225315E-1
MEAN_MOTION_DDOT = -.1256122E-5

CCSDS_OMM_VERS = 2.0
CREATION_DATE  = 
ORIGINATOR     = 

OBJECT_NAME    = SL-14 R/B
OBJECT_ID      = 1987-024B
CENTER_NAME    = EARTH
REF_FRAME      = TEME
TIME_SYSTEM    = UTC
MEAN_ELEMENT_THEORY = SGP/SGP4

EPOCH          = 2026-03-05T14:22:21.549792
MEAN_MOTION    = 14.86127704
ECCENTRICITY   = .00166795
INCLINATION    = 82.5250
RA_OF_ASC_NODE = 96.6097
ARG_OF_PERICENTER = 274.7491
MEAN_ANOMALY   = 85.1820

EPHEMERIS_TYPE = 0
CLASSIFICATION_TYPE = U
NORAD_CAT_ID   = 17567
ELEMENT_SET_NO = 999
REV_AT_EPOCH   = 8752
BSTAR          = .67259613E-4
MEAN_MOTION_DOT = .615E-5
MEAN_MOTION_DDOT = 0

CCSDS_OMM_VERS = 2.0
CREATION_DATE  = 
ORIGINATOR     = 

OBJECT_NAME    = COSMOS 1833
OBJECT_ID      = 1987-027A
CENTER_NAME    = EARTH
REF_FRAME      = TEME
TIME_SYSTEM    = UTC
MEAN_ELEMENT_THEORY = SGP/SGP4

EPOCH          = 2026-03-05T04:30:57.233088
MEAN_MOTION    = 14.13055825
ECCENTRICITY   = .00244789
INCLINATION    = 70.9232
RA_OF_ASC_NODE = 335.4791
ARG_OF_PERICENTER = 220.7927
MEAN_ANOMALY   = 139.1363

EPHEMERIS_TYPE = 0
CLASSIFICATION_TYPE = U
NORAD_CAT_ID   = 17589
ELEMENT_SET_NO = 999
REV_AT_EPOCH   = 968
BSTAR          = -.44564818E-4
MEAN_MOTION_DOT = -.132E-5
MEAN_MOTION_DDOT = 0

CCSDS_OMM_VERS = 2.0
CREATION_DATE  = 
ORIGINATOR     = 

OBJECT_NAME    = SL-16 R/B
OBJECT_ID      = 1987-027B
CENTER_NAME    = EARTH
REF_FRAME      = TEME
TIME_SYSTEM    = UTC
MEAN_ELEMENT_THEORY = SGP/SGP4

EPOCH          = 2026-03-05T00:48:32.397120
MEAN_MOTION    = 14.17165983
ECCENTRICITY   = .00036285
INCLINATION    = 71.0015
RA_OF_ASC_NODE = 286.3071
ARG_OF_PERICENTER = 152.8419
MEAN_ANOMALY   = 207.2895

EPHEMERIS_TYPE = 0
CLASSIFICATION_TYPE = U
NORAD_CAT_ID   = 17590
ELEMENT_SET_NO = 999
REV_AT_EPOCH   = 1468
BSTAR          = -.59456157E-4
MEAN_MOTION_DOT = -.168E-5
MEAN_MOTION_DDOT = 0

CCSDS_OMM_VERS = 2.0
CREATION_DATE  = 
ORIGINATOR     = 

OBJECT_NAME    = SL-14 R/B
OBJECT_ID      = 1987-038B
CENTER_NAME    = EARTH
REF_FRAME      = TEME
TIME_SYSTEM    = UTC
MEAN_ELEMENT_THEORY = SGP/SGP4

EPOCH          = 2026-03-05T14:12:05.415840
MEAN_MOTION    = 14.85365228
ECCENTRICITY   = .00193299
INCLINATION    = 82.5008
RA_OF_ASC_NODE = 300.6684
ARG_OF_PERICENTER = 173.7146
MEAN_ANOMALY   = 186.4317

EPHEMERIS_TYPE = 0
CLASSIFICATION_TYPE = U
NORAD_CAT_ID   = 17912
ELEMENT_SET_NO = 999
REV_AT_EPOCH   = 7862
BSTAR          = .67626705E-4
MEAN_MOTION_DOT = .608E-5
MEAN_MOTION_DDOT = 0

CCSDS_OMM_VERS = 2.0
CREATION_DATE  = 
ORIGINATOR     = 

OBJECT_NAME    = COSMOS 1844
OBJECT_ID      = 1987-041A
CENTER_NAME    = EARTH
REF_FRAME      = TEME
TIME_SYSTEM    = UTC
MEAN_ELEMENT_THEORY = SGP/SGP4

EPOCH          = 2026-03-05T08:52:08.438304
MEAN_MOTION    = 14.14553146
ECCENTRICITY   = .00297628
INCLINATION    = 70.8996
RA_OF_ASC_NODE = 43.2872
ARG_OF_PERICENTER = 24.3038
MEAN_ANOMALY   = 335.9480

EPHEMERIS_TYPE = 0
CLASSIFICATION_TYPE = U
NORAD_CAT_ID   = 17973
ELEMENT_SET_NO = 999
REV_AT_EPOCH   = 297
BSTAR          = -.228089E-4
MEAN_MOTION_DOT = -.92E-6
MEAN_MOTION_DDOT = 0

CCSDS_OMM_VERS = 2.0
CREATION_DATE  = 
ORIGINATOR     = 

OBJECT_NAME    = SL-14 R/B
OBJECT_ID      = 1987-055B
CENTER_NAME    = EARTH
REF_FRAME      = TEME
TIME_SYSTEM    = UTC
MEAN_ELEMENT_THEORY = SGP/SGP4

EPOCH          = 2026-03-05T12:02:55.930272
MEAN_MOTION    = 14.85623784
ECCENTRICITY   = .0021508
INCLINATION    = 82.5029
RA_OF_ASC_NODE = 352.9768
ARG_OF_PERICENTER = 31.2603
MEAN_ANOMALY   = 328.9887

EPHEMERIS_TYPE = 0
CLASSIFICATION_TYPE = U
NORAD_CAT_ID   = 18153
ELEMENT_SET_NO = 999
REV_AT_EPOCH   = 6931
BSTAR          = .91607785E-4
MEAN_MOTION_DOT = .82E-5
MEAN_MOTION_DDOT = 0

CCSDS_OMM_VERS = 2.0
CREATION_DATE  = 
ORIGINATOR     = 

OBJECT_NAME    = COSMOS 1867
OBJECT_ID      = 1987-060A
CENTER_NAME    = EARTH
REF_FRAME      = TEME
TIME_SYSTEM    = UTC
MEAN_ELEMENT_THEORY = SGP/SGP4

EPOCH          = 2026-03-05T02:38:11.367456
MEAN_MOTION    = 14.31502252
ECCENTRICITY   = .00144182
INCLINATION    = 65.0117
RA_OF_ASC_NODE = 319.5309
ARG_OF_PERICENTER = 278.3689
MEAN_ANOMALY   = 81.5761

EPHEMERIS_TYPE = 0
CLASSIFICATION_TYPE = U
NORAD_CAT_ID   = 18187
ELEMENT_SET_NO = 999
REV_AT_EPOCH   = 1928
BSTAR          = .41240629E-4
MEAN_MOTION_DOT = .1E-6
MEAN_MOTION_DDOT = 0

CCSDS_OMM_VERS = 2.0
CREATION_DATE  = 
ORIGINATOR     = 

OBJECT_NAME    = SL-14 R/B
OBJECT_ID      = 1988-001B
CENTER_NAME    = EARTH
REF_FRAME      = TEME
TIME_SYSTEM    = UTC
MEAN_ELEMENT_THEORY = SGP/SGP4

EPOCH          = 2026-03-05T15:09:43.806528
MEAN_MOTION    = 14.85522157
ECCENTRICITY   = .00166681
INCLINATION    = 82.5146
RA_OF_ASC_NODE = 199.1758
ARG_OF_PERICENTER = 250.2080
MEAN_ANOMALY   = 109.7339

EPHEMERIS_TYPE = 0
CLASSIFICATION_TYPE = U
NORAD_CAT_ID   = 18749
ELEMENT_SET_NO = 999
REV_AT_EPOCH   = 4142
BSTAR          = .95574727E-4
MEAN_MOTION_DOT = .851E-5
MEAN_MOTION_DDOT = 0

